OBJECT_NAME,OBJECT_ID,EPOCH,MEAN_MOTION,ECCENTRICITY,INCLINATION,RA_OF_ASC_NODE,ARG_OF_PERICENTER,MEAN_ANOMALY,EPHEMERIS_TYPE,CLASSIFICATION_TYPE,NORAD_CAT_ID,ELEMENT_SET_NO,REV_AT_EPOCH,BSTAR,MEAN_MOTION_DOT,MEAN_MOTION_DDOT
JUPITER 3 (ECHOSTAR 24),2023-108A,2026-07-09T11:11:20.686560,1.00271882,.00012775,0.0218,38.7404,67.0113,254.2624,0,U,57479,999,1086,0,0,0
GALAXY 37 (G-37),2023-112A,2026-07-10T16:25:26.586336,1.00270438,.0001775,0.0121,61.8218,52.9234,293.2174,0,U,57493,999,1077,0,.57E-6,0
LUDI TANCE-4 01A,2023-120A,2026-07-10T00:20:28.068000,1.00276968,.0001315,15.0900,193.4082,40.7671,148.2889,0,U,57624,999,1077,0,-.155E-5,0
TJS-10,2023-169A,2026-07-10T17:28:02.060832,1.00275155,.0004035,2.6022,80.2089,115.5287,87.2484,0,U,58204,999,977,0,-.243E-5,0
ZHONGXING-6E,2023-172A,2026-07-10T17:43:38.672256,1.00266240,.0002174,0.0182,60.2036,50.2192,199.5949,0,U,58253,999,989,0,-.352E-5,0
YAOGAN-41,2023-197A,2026-07-10T21:01:59.098080,1.00267966,.0014296,3.0871,313.4996,198.4686,215.4983,0,U,58582,999,956,0,-.35E-5,0
OVZON-3,2024-003A,2026-07-10T17:18:40.593024,1.00276603,.0000569,0.0180,77.9596,270.2577,259.7821,0,U,58698,999,768,0,.6E-6,0
INSAT-3DS,2024-033A,2026-07-10T10:34:21.684000,1.00271597,.00010778,0.1046,265.7903,223.3866,39.8494,0,U,58990,999,4730,0,-.146E-5,0
MERAH PUTIH 2,2024-035A,2026-07-10T17:43:38.672256,1.00272513,.0001095,0.0162,62.4181,48.1185,196.9844,0,U,58995,999,882,0,-.349E-5,0
TJS-11,2024-037A,2026-07-10T19:16:25.516704,1.00263767,.0002729,4.1692,327.3639,139.7725,223.1695,0,U,59020,999,882,0,-.35E-5,0
HULIANWAN GAOGUI-01 (HG-01),2024-040A,2026-07-10T01:22:38.758656,1.00269157,.00017662,0.0729,331.4329,71.1870,299.6615,0,U,59069,999,755,0,.167E-5,0
EUTELSAT 36D,2024-059A,2026-07-10T06:55:53.319648,1.00271389,.00003354,0.0048,115.6009,116.4550,195.9977,0,U,59346,999,837,0,.166E-5,0
PAKSAT-MM1,2024-104A,2026-07-10T17:12:33.679008,1.00268397,.0002023,0.0394,183.9382,271.6507,129.3492,0,U,59915,999,776,0,.163E-5,0
ASTRA 1P (SES-24),2024-115A,2026-07-10T01:43:15.972960,1.00263401,.00013062,0.0616,332.1948,264.4649,96.3634,0,U,60086,999,742,0,.13E-5,0
GOES 19,2024-119A,2026-07-10T03:52:54.877728,1.00270419,.00005878,0.0073,145.0944,63.0042,63.0239,0,U,60133,999,719,0,-.237E-5,0
TURKSAT 6A,2024-127A,2026-07-10T17:13:41.071008,1.00272130,.0002781,0.0676,225.5390,297.6920,65.8247,0,U,60233,999,725,0,.155E-5,0
ZHONGXING-4A,2024-151A,2026-07-10T18:03:00.036000,1.00269679,.0000317,1.2560,270.5419,296.8933,110.2069,0,U,60606,999,699,0,-.352E-5,0
HULIANWAN GAOGUI-03 (HG-03),2024-181A,2026-07-10T20:04:58.363104,1.00272434,.0001061,0.0503,355.1078,95.8008,61.9722,0,U,61503,999,706,0,-.233E-5,0
DSN-3 (KIRAMEKI-3),2024-198A,2026-07-10T17:42:46.649088,1.00272949,.0000807,0.0134,316.7141,181.1439,200.5398,0,U,61733,999,615,0,-.241E-5,0
KOREASAT 6A,2024-206A,2026-07-10T17:07:38.762976,1.00268097,.000053,0.0180,52.8156,44.9993,203.7407,0,U,61910,999,607,0,0,0
OPTUS-X (ADS-01),2024-212A,2026-07-10T17:46:16.315104,1.00270397,.0002364,0.0177,21.2167,131.5873,198.8226,0,U,62006,999,599,0,-.135E-5,0
GSAT-N2 (GSAT-20),2024-214A,2026-07-10T17:21:02.866176,1.00270388,.0002696,0.0867,264.4448,140.9512,211.4471,0,U,62028,999,613,0,-.1E-6,0
SXM-9,2024-234A,2026-07-09T21:48:06.189408,1.00271538,.00049959,0.0154,340.8848,334.1709,214.6560,0,U,62259,999,580,0,-.193E-5,0
TJS-12,2024-246A,2026-07-10T19:26:02.094144,1.00270092,.0001789,0.6215,301.5374,97.7113,327.5404,0,U,62374,999,580,0,-.221E-5,0
NUVIEW ALPHA,2024-252B,2026-07-10T11:29:57.122304,1.00270581,.0000961,0.0429,23.2551,47.6831,306.8513,0,U,62455,999,405,0,-.205E-5,0
AGILA,2024-252C,2026-07-10T17:45:01.433088,1.00273741,.0001278,0.0450,150.0612,356.6797,200.3301,0,U,62456,999,539,0,-.172E-5,0
NUVIEW BRAVO,2024-252D,2026-07-10T11:29:57.122304,1.00271456,.0001554,0.0678,166.8144,347.7346,223.2404,0,U,62457,999,402,0,-.205E-5,0
THURAYA-4,2025-001A,2026-07-10T17:14:18.510720,1.00272818,.0000214,0.0196,68.9814,189.7325,332.8068,0,U,62483,999,441,0,.148E-5,0
SHIJIAN-25 (SJ-25),2025-002A,2026-07-10T14:46:38.603712,1.00265093,.0052136,5.1661,61.0114,175.2648,41.1794,0,U,62485,999,559,0,-.346E-5,0
TJS-14,2025-017A,2026-07-10T20:31:55.691616,1.00274037,.0001783,0.7315,297.3156,293.8436,24.0037,0,U,62804,999,550,0,.125E-5,0
