JUPITER 3 (ECHOSTAR 24) 
1 57479U 23108A   26190.46621165  .00000000  00000+0  00000+0 0  9993
2 57479   0.0218  38.7404 0001277  67.0113 254.2624  1.00271882 10865
GALAXY 37 (G-37)        
1 57493U 23112A   26191.68433549  .00000057  00000+0  00000+0 0  9998
2 57493   0.0121  61.8218 0001775  52.9234 293.2174  1.00270438 10773
LUDI TANCE-4 01A        
1 57624U 23120A   26191.01421375 -.00000155  00000+0  00000+0 0  9994
2 57624  15.0900 193.4082 0001315  40.7671 148.2889  1.00276968 10777
TJS-10                  
1 58204U 23169A   26191.72780163 -.00000243  00000+0  00000+0 0  9991
2 58204   2.6022  80.2089 0004035 115.5287  87.2484  1.00275155  9773
ZHONGXING-6E            
1 58253U 23172A   26191.73864204 -.00000352  00000+0  00000+0 0  9990
2 58253   0.0182  60.2036 0002174  50.2192 199.5949  1.00266240  9899
YAOGAN-41               
1 58582U 23197A   26191.87637845 -.00000350  00000+0  00000+0 0  9994
2 58582   3.0871 313.4996 0014296 198.4686 215.4983  1.00267966  9567
OVZON-3                 
1 58698U 24003A   26191.72130316  .00000060  00000+0  00000+0 0  9991
2 58698   0.0180  77.9596 0000569 270.2577 259.7821  1.00276603  7680
INSAT-3DS               
1 58990U 24033A   26191.44052875 -.00000146  00000+0  00000+0 0  9997
2 58990   0.1046 265.7903 0001077 223.3866  39.8494  1.00271597 47304
MERAH PUTIH 2           
1 58995U 24035A   26191.73864204 -.00000349  00000+0  00000+0 0  9998
2 58995   0.0162  62.4181 0001095  48.1185 196.9844  1.00272513  8821
TJS-11                  
1 59020U 24037A   26191.80307311 -.00000350  00000+0  00000+0 0  9991
2 59020   4.1692 327.3639 0002729 139.7725 223.1695  1.00263767  8825
HULIANWAN GAOGUI-01 (H*)
1 59069U 24040A   26191.05739304  .00000167  00000+0  00000+0 0  9991
2 59069   0.0729 331.4329 0001766  71.1870 299.6615  1.00269157  7554
EUTELSAT 36D            
1 59346U 24059A   26191.28881157  .00000166  00000+0  00000+0 0  9997
2 59346   0.0048 115.6009 0000335 116.4550 195.9977  1.00271389  8372
PAKSAT-MM1              
1 59915U 24104A   26191.71705647  .00000163  00000+0  00000+0 0  9994
2 59915   0.0394 183.9382 0002023 271.6507 129.3492  1.00268397  7762
ASTRA 1P (SES-24)       
1 60086U 24115A   26191.07171265  .00000130  00000+0  00000+0 0  9993
2 60086   0.0616 332.1948 0001306 264.4649  96.3634  1.00263401  7421
GOES 19                 
1 60133U 24119A   26191.16174627 -.00000237  00000+0  00000+0 0  9994
2 60133   0.0073 145.0944 0000587  63.0042  63.0239  1.00270419  7191
TURKSAT 6A              
1 60233U 24127A   26191.71783647  .00000155  00000+0  00000+0 0  9991
2 60233   0.0676 225.5390 0002781 297.6920  65.8247  1.00272130  7256
ZHONGXING-4A            
1 60606U 24151A   26191.75208375 -.00000352  00000+0  00000+0 0  9996
2 60606   1.2560 270.5419 0000317 296.8933 110.2069  1.00269679  6996
HULIANWAN GAOGUI-03 (H*)
1 61503U 24181A   26191.83678661 -.00000233  00000+0  00000+0 0  9992
2 61503   0.0503 355.1078 0001061  95.8008  61.9722  1.00272434  7065
DSN-3 (KIRAMEKI-3)      
1 61733U 24198A   26191.73803992 -.00000241  00000+0  00000+0 0  9990
2 61733   0.0134 316.7141 0000807 181.1439 200.5398  1.00272949  6158
KOREASAT 6A             
1 61910U 24206A   26191.71364309  .00000000  00000+0  00000+0 0  9991
2 61910   0.0180  52.8156 0000530  44.9993 203.7407  1.00268097  6070
OPTUS-X (ADS-01)        
1 62006U 24212A   26191.74046661 -.00000135  00000+0  00000+0 0  9996
2 62006   0.0177  21.2167 0002364 131.5873 198.8226  1.00270397  5991
GSAT-N2 (GSAT-20)       
1 62028U 24214A   26191.72294984 -.00000010  00000+0  00000+0 0  9995
2 62028   0.0867 264.4448 0002696 140.9512 211.4471  1.00270388  6137
SXM-9                   
1 62259U 24234A   26190.90840497 -.00000193  00000+0  00000+0 0  9990
2 62259   0.0154 340.8848 0004995 334.1709 214.6560  1.00271538  5809
TJS-12                  
1 62374U 24246A   26191.80974646 -.00000221  00000+0  00000+0 0  9997
2 62374   0.6215 301.5374 0001789  97.7113 327.5404  1.00270092  5803
NUVIEW ALPHA            
1 62455U 24252B   26191.47913336 -.00000205  00000+0  00000+0 0  9998
2 62455   0.0429  23.2551 0000961  47.6831 306.8513  1.00270581  4051
AGILA                   
1 62456U 24252C   26191.73959992 -.00000172  00000+0  00000+0 0  9999
2 62456   0.0450 150.0612 0001278 356.6797 200.3301  1.00273741  5391
NUVIEW BRAVO            
1 62457U 24252D   26191.47913336 -.00000205  00000+0  00000+0 0  9990
2 62457   0.0678 166.8144 0001554 347.7346 223.2404  1.00271456  4025
THURAYA-4               
1 62483U 25001A   26191.71826980  .00000148  00000+0  00000+0 0  9992
2 62483   0.0196  68.9814 0000214 189.7325 332.8068  1.00272818  4417
SHIJIAN-25 (SJ-25)      
1 62485U 25002A   26191.61572458 -.00000346  00000+0  00000+0 0  9993
2 62485   5.1661  61.0114 0052136 175.2648  41.1794  1.00265093  5590
TJS-14                  
1 62804U 25017A   26191.85550569  .00000125  00000+0  00000+0 0  9993
2 62804   0.7315 297.3156 0001783 293.8436  24.0037  1.00274037  5505
